[{"OBJECT_NAME":"GEOSCAN 1 (RS92S1)","OBJECT_ID":"2025-155E","EPOCH":"2026-03-09T22:44:05.846496","MEAN_MOTION":15.28410635,"ECCENTRICITY":0.00087099,"INCLINATION":97.4463,"RA_OF_ASC_NODE":37.403,"ARG_OF_PERICENTER":153.6429,"MEAN_ANOMALY":206.5255,"EPHEMERIS_TYPE":0,"CLASSIFICATION_TYPE":"U","NORAD_CAT_ID":64880,"ELEMENT_SET_NO":999,"REV_AT_EPOCH":6560,"BSTAR":0.00054367431,"MEAN_MOTION_DOT":0.00014993,"MEAN_MOTION_DDOT":0},{"OBJECT_NAME":"STARLINK-35020","OBJECT_ID":"2025-189T","EPOCH":"2026-03-09T21:45:26.269920","MEAN_MOTION":15.30208225,"ECCENTRICITY":0.00016568,"INCLINATION":53.1599,"RA_OF_ASC_NODE":205.4732,"ARG_OF_PERICENTER":51.9803,"MEAN_ANOMALY":308.1347,"EPHEMERIS_TYPE":0,"CLASSIFICATION_TYPE":"U","NORAD_CAT_ID":65340,"ELEMENT_SET_NO":999,"REV_AT_EPOCH":3109,"BSTAR":0.0013477456,"MEAN_MOTION_DOT":0.00039782,"MEAN_MOTION_DDOT":0}]
